{
  "type": "FeatureCollection",
  "name": "VERTI_CAD_3D_Property_Units",
  "crs": { "type": "name", "properties": { "name": "urn:ogc:def:crs:OGC:1.3:CRS84" } },
  "features": [
    {
      "type": "Feature",
      "properties": {
        "ulpin": "IN-UT-HW-001245-B07-F05-U503",
        "unit_number": "503",
        "floor": 5,
        "floor_label": "Floor 5",
        "owner": "Devendra Negi",
        "property_type": "Apartment",
        "area_m2": 112.5,
        "z_min": 15.0,
        "z_max": 18.0,
        "volume_m3": 337.5,
        "conflict_flagged": true,
        "conflict_reason": "Vertical overlap with Unit 504 between 17m and 18m"
      },
      "geometry": {
        "type": "Polygon",
        "coordinates": [[[78.16405, 29.9457], [78.1642, 29.9457], [78.1642, 29.94585], [78.16405, 29.94585], [78.16405, 29.9457]]]
      }
    },
    {
      "type": "Feature",
      "properties": {
        "ulpin": "IN-UT-HW-001245-B07-F05-U504",
        "unit_number": "504",
        "floor": 5,
        "floor_label": "Floor 5",
        "owner": "Kiran Pal Singh",
        "property_type": "Apartment",
        "area_m2": 112.5,
        "z_min": 17.0,
        "z_max": 20.0,
        "volume_m3": 337.5,
        "conflict_flagged": true,
        "conflict_reason": "Vertical overlap with Unit 503 between 17m and 18m"
      },
      "geometry": {
        "type": "Polygon",
        "coordinates": [[[78.1642, 29.9457], [78.16435, 29.9457], [78.16435, 29.94585], [78.1642, 29.94585], [78.1642, 29.9457]]]
      }
    },
    {
      "type": "Feature",
      "properties": {
        "ulpin": "IN-UT-HW-001245-B07-F05-U501",
        "unit_number": "501",
        "floor": 5,
        "floor_label": "Floor 5",
        "owner": "Aarav Sharma",
        "property_type": "Apartment",
        "area_m2": 112.5,
        "z_min": 15.0,
        "z_max": 18.0,
        "volume_m3": 337.5,
        "conflict_flagged": false
      },
      "geometry": {
        "type": "Polygon",
        "coordinates": [[[78.16405, 29.94555], [78.1642, 29.94555], [78.1642, 29.9457], [78.16405, 29.9457], [78.16405, 29.94555]]]
      }
    },
    {
      "type": "Feature",
      "properties": {
        "ulpin": "IN-UT-HW-001245-B07-F05-U502",
        "unit_number": "502",
        "floor": 5,
        "floor_label": "Floor 5",
        "owner": "Pooja Verma",
        "property_type": "Apartment",
        "area_m2": 112.5,
        "z_min": 15.0,
        "z_max": 18.0,
        "volume_m3": 337.5,
        "conflict_flagged": false
      },
      "geometry": {
        "type": "Polygon",
        "coordinates": [[[78.1642, 29.94555], [78.16435, 29.94555], [78.16435, 29.9457], [78.1642, 29.9457], [78.1642, 29.94555]]]
      }
    },
    {
      "type": "Feature",
      "properties": {
        "ulpin": "IN-UT-HW-001245-B07-B02-U001",
        "unit_number": "B201",
        "floor": -2,
        "floor_label": "Basement -2",
        "owner": "Building Association - Parking",
        "property_type": "Underground Parking",
        "area_m2": 225.0,
        "z_min": -9.0,
        "z_max": -5.0,
        "volume_m3": 900.0,
        "conflict_flagged": false
      },
      "geometry": {
        "type": "Polygon",
        "coordinates": [[[78.16405, 29.94555], [78.16435, 29.94555], [78.16435, 29.9457], [78.16405, 29.9457], [78.16405, 29.94555]]]
      }
    }
  ]
}
